sat07938
1 07938U 75051D   20046.76759525 -.00000003  00000-0  34018-4 0  9997
2 07938  94.9836 154.5719 0039503 132.6279   0.1511 12.72104697 74277
